NORAD_CAT_ID,OBJECT_NAME,OBJECT_TYPE,EPOCH,MEAN_MOTION,ECCENTRICITY,INCLINATION,RA_OF_ASC_NODE,ARG_OF_PERICENTER,MEAN_ANOMALY,BSTAR,MEAN_MOTION_DOT,MEAN_MOTION_DDOT,TLE_LINE0,TLE_LINE1,TLE_LINE2,SEMIMAJOR_AXIS,PERIOD,APOGEE,PERIGEE,DECAYED
53596.0,STARLINK-4668,PAYLOAD,2024-07-29 02:49:11,15.19318939,0.0001204,53.2169,359.1364,230.0324,130.0567,0.0014662,0.00031162,0.0,0 STARLINK-4668,1 53596U 22104J   24211.11749409  .00031162  00000-0  14662-2 0  9996,2 53596  53.2169 359.1364 0001204 230.0324 130.0567 15.19318939106174,6886.035,94.779,508.729,507.071,0.0
53596.0,STARLINK-4668,PAYLOAD,2024-07-29 20:11:10,15.19366199,0.0001227,53.2165,355.8354,237.431,122.6568,0.0015424,0.00032851,0.0,0 STARLINK-4668,1 53596U 22104J   24211.84109245  .00032851  00000-0  15424-2 0  9997,2 53596  53.2165 355.8354 0001227 237.4310 122.6568 15.19366199106970,6885.892,94.776,508.602,506.912,0.0
53596.0,STARLINK-4668,PAYLOAD,2024-07-30 02:30:04,15.1938319,0.0001236,53.2163,354.6347,240.1743,119.9131,0.0015746,0.00033563,0.0,0 STARLINK-4668,1 53596U 22104J   24212.10421388  .00033563  00000-0  15746-2 0  9990,2 53596  53.2163 354.6347 0001236 240.1743 119.9131 15.19383190107019,6885.841,94.775,508.557,506.854,0.0
53596.0,STARLINK-4668,PAYLOAD,2024-07-31 02:10:52,15.19460686,0.0001203,53.2158,350.1323,251.0214,109.0652,0.0019094,0.00040901,0.0,0 STARLINK-4668,1 53596U 22104J   24213.09088855  .00040901  00000-0  19094-2 0  9991,2 53596  53.2158 350.1323 0001203 251.0214 109.0652 15.19460686106479,6885.606,94.77,508.3,506.643,0.0
53596.0,STARLINK-4668,PAYLOAD,2024-07-31 14:48:37,15.19495926,0.0001198,53.2155,347.7311,256.147,103.9393,0.0016595,0.00035516,0.0,0 STARLINK-4668,1 53596U 22104J   24213.61709520  .00035516  00000-0  16595-2 0  9997,2 53596  53.2155 347.7311 0001198 256.1470 103.9393 15.19495926107244,6885.5,94.768,508.19,506.54,0.0
53596.0,STARLINK-4668,PAYLOAD,2024-07-31 19:32:45,15.19514698,0.0001209,53.2152,346.8305,256.162,103.9242,0.001948,0.00041806,0.0,0 STARLINK-4668,1 53596U 22104J   24213.81441921  .00041806  00000-0  19480-2 0  9992,2 53596  53.2152 346.8305 0001209 256.1620 103.9242 15.19514698107278,6885.443,94.767,508.141,506.476,0.0
53596.0,STARLINK-4668,PAYLOAD,2024-08-01 01:51:37,15.19537595,0.000121,53.215,345.6299,259.9602,100.1258,0.0021133,0.00045434,0.0,0 STARLINK-4668,1 53596U 22104J   24214.07751477  .00045434  00000-0  21133-2 0  9990,2 53596  53.2150 345.6299 0001210 259.9602 100.1258 15.19537595107310,6885.374,94.766,508.072,506.406,0.0
53596.0,STARLINK-4668,PAYLOAD,2024-08-01 17:38:44,15.19593639,0.0001194,53.2149,342.6276,268.0452,92.0408,0.002043,0.00043975,0.0,0 STARLINK-4668,1 53596U 22104J   24214.73523518  .00043975  00000-0  20430-2 0  9993,2 53596  53.2149 342.6276 0001194 268.0452  92.0408 15.19593639106726,6885.205,94.762,507.892,506.248,0.0
53596.0,STARLINK-4668,PAYLOAD,2024-08-02 14:09:56,15.19662321,0.0001255,53.2148,338.725,276.2791,83.8063,0.0017475,0.0003761,0.0,0 STARLINK-4668,1 53596U 22104J   24215.59023492  .00037610  00000-0  17475-2 0  9998,2 53596  53.2148 338.7250 0001255 276.2791  83.8063 15.19662321107549,6884.997,94.758,507.726,505.998,0.0
53596.0,STARLINK-4668,PAYLOAD,2024-08-02 17:19:20,15.19674918,0.0001325,53.2146,338.1247,278.3214,81.7632,0.0018653,0.00040196,0.0,0 STARLINK-4668,1 53596U 22104J   24215.72176972  .00040196  00000-0  18653-2 0  9997,2 53596  53.2146 338.1247 0001325 278.3214  81.7632 15.19674918107564,6884.959,94.757,507.737,505.912,0.0
53596.0,STARLINK-4668,PAYLOAD,2024-08-03 01:12:52,15.19704347,0.0001388,53.2143,336.6237,279.9809,80.1032,0.0019729,0.00042584,0.0,0 STARLINK-4668,1 53596U 22104J   24216.05060267  .00042584  00000-0  19729-2 0  9991,2 53596  53.2143 336.6237 0001388 279.9809  80.1032 15.19704347106925,6884.87,94.755,507.691,505.78,0.0
53596.0,STARLINK-4668,PAYLOAD,2024-08-03 13:50:28,15.19745944,0.0001395,53.2141,334.2225,285.1283,74.956,0.0018733,0.00040455,0.0,0 STARLINK-4668,1 53596U 22104J   24216.57672376  .00040455  00000-0  18733-2 0  9997,2 53596  53.2141 334.2225 0001395 285.1283  74.9560 15.19745944107697,6884.745,94.753,507.57,505.649,0.0
53596.0,STARLINK-4668,PAYLOAD,2024-08-03 15:25:10,15.1975132,0.0001394,53.214,333.9223,285.7767,74.3076,0.0018842,0.000407,0.0,0 STARLINK-4668,1 53596U 22104J   24216.64248791  .00040700  00000-0  18842-2 0  9999,2 53596  53.2140 333.9223 0001394 285.7767  74.3076 15.19751320107705,6884.729,94.752,507.553,505.634,0.0
53596.0,STARLINK-4668,PAYLOAD,2024-08-04 11:56:14,15.19839171,0.0001469,53.2136,330.0192,294.5734,65.511,0.0024439,0.00053112,0.0,0 STARLINK-4668,1 53596U 22104J   24217.49739554  .00053112  00000-0  24439-2 0  9995,2 53596  53.2136 330.0192 0001469 294.5734  65.5110 15.19839171107148,6884.463,94.747,507.34,505.317,0.0
53596.0,STARLINK-4668,PAYLOAD,2024-08-04 13:30:56,15.19845437,0.0001476,53.2135,329.7189,295.5618,64.5226,0.0024453,0.00053153,0.0,0 STARLINK-4668,1 53596U 22104J   24217.56315572  .00053153  00000-0  24453-2 0  9994,2 53596  53.2135 329.7189 0001476 295.5618  64.5226 15.19845437107844,6884.444,94.746,507.325,505.293,0.0
53596.0,STARLINK-4668,PAYLOAD,2024-08-04 16:40:19,15.1985961,0.0001465,53.2135,329.1184,297.6223,62.4625,0.0024819,0.00053982,0.0,0 STARLINK-4668,1 53596U 22104J   24217.69467504  .00053982  00000-0  24819-2 0  9997,2 53596  53.2135 329.1184 0001465 297.6223  62.4625 15.19859610107866,6884.402,94.746,507.275,505.258,0.0
53596.0,STARLINK-4668,PAYLOAD,2024-08-05 00:33:47,15.19928441,0.0001504,53.2134,327.6168,302.1781,57.907,0.0041275,0.00090626,0.0,0 STARLINK-4668,1 53596U 22104J   24218.02346486  .00090626  00000-0  41275-2 0  9991,2 53596  53.2134 327.6168 0001504 302.1781  57.9070 15.19928441107227,6884.194,94.741,507.094,505.023,0.0
53596.0,STARLINK-4668,PAYLOAD,2024-08-05 13:11:18,15.19950102,0.0001511,53.2132,325.2147,306.2206,53.8651,0.0020441,0.00044462,0.0,0 STARLINK-4668,1 53596U 22104J   24218.54951698  .00044462  00000-0  20441-2 0  9994,2 53596  53.2132 325.2147 0001511 306.2206  53.8651 15.19950102107309,6884.128,94.74,507.033,504.953,0.0
53596.0,STARLINK-4668,PAYLOAD,2024-08-06 12:51:34,15.20033682,0.0001624,53.2129,320.7089,315.3729,44.7138,0.0018038,0.00039265,0.0,0 STARLINK-4668,1 53596U 22104J   24219.53581842  .00039265  00000-0  18038-2 0  9998,2 53596  53.2129 320.7089 0001624 315.3729  44.7138 15.20033682108145,6883.876,94.735,506.859,504.623,0.0
53596.0,STARLINK-4668,PAYLOAD,2024-08-07 12:31:46,15.20116804,0.0001804,53.2122,316.2055,323.2887,36.7986,0.0019207,0.00041948,0.0,0 STARLINK-4668,1 53596U 22104J   24220.52206800  .00041948  00000-0  19207-2 0  9997,2 53596  53.2122 316.2055 0001804 323.2887  36.7986 15.20116804107604,6883.625,94.73,506.732,504.248,0.0
53596.0,STARLINK-4668,PAYLOAD,2024-08-08 13:46:33,15.2021877,0.0002215,53.2114,311.4,333.2701,26.8182,0.0022513,0.00049423,0.0,0 STARLINK-4668,1 53596U 22104J   24221.57400420  .00049423  00000-0  22513-2 0  9997,2 53596  53.2114 311.4000 0002215 333.2701  26.8182 15.20218770108452,6883.317,94.723,506.707,503.658,0.0
53596.0,STARLINK-4668,PAYLOAD,2024-08-09 13:26:34,15.20320784,0.0002331,53.2109,306.8936,337.7747,22.3149,0.0021987,0.00048398,0.0,0 STARLINK-4668,1 53596U 22104J   24222.56012563  .00048398  00000-0  21987-2 0  9998,2 53596  53.2109 306.8936 0002331 337.7747  22.3149 15.20320784108600,6883.009,94.717,506.479,503.27,0.0
53596.0,STARLINK-4668,PAYLOAD,2024-08-09 15:01:14,15.20328602,0.000234,53.2108,306.593,338.1026,21.9871,0.0022277,0.00049057,0.0,0 STARLINK-4668,1 53596U 22104J   24222.62586456  .00049057  00000-0  22277-2 0  9998,2 53596  53.2108 306.5930 0002340 338.1026  21.9871 15.20328602107923,6882.986,94.716,506.461,503.24,0.0
53596.0,STARLINK-4668,PAYLOAD,2024-08-10 13:06:29,15.20441594,0.0002568,53.2104,302.3867,343.3316,16.7596,0.0022838,0.00050477,0.0,0 STARLINK-4668,1 53596U 22104J   24223.54617415  .00050477  00000-0  22838-2 0  9991,2 53596  53.2104 302.3867 0002568 343.3316  16.7596 15.20441594108062,6882.645,94.709,506.277,502.742,0.0
53596.0,STARLINK-4668,PAYLOAD,2024-08-10 22:34:25,15.20493884,0.0002699,53.2103,300.5843,346.2474,13.8449,0.0027208,0.00060373,0.0,0 STARLINK-4668,1 53596U 22104J   24223.94057132  .00060373  00000-0  27208-2 0  9991,2 53596  53.2103 300.5843 0002699 346.2474  13.8449 15.20493884108128,6882.487,94.706,506.209,502.494,0.0
53596.0,STARLINK-4668,PAYLOAD,2024-08-11 11:11:38,15.20567538,0.0002787,53.2102,298.1797,348.3237,11.7695,0.0026921,0.00059858,0.0,0 STARLINK-4668,1 53596U 22104J   24224.46641204  .00059858  00000-0  26921-2 0  9995,2 53596  53.2102 298.1797 0002787 348.3237  11.7695 15.20567538108202,6882.265,94.701,506.048,502.211,0.0
53596.0,STARLINK-4668,PAYLOAD,2024-08-11 22:14:09,15.2064439,0.0002926,53.2102,296.0765,351.6147,8.4801,0.0033662,0.00075256,0.0,0 STARLINK-4668,1 53596U 22104J   24224.92650017  .00075256  00000-0  33662-2 0  9998,2 53596  53.2102 296.0765 0002926 351.6147   8.4801 15.20644390108963,6882.033,94.697,505.911,501.884,0.0
53596.0,STARLINK-4668,PAYLOAD,2024-08-12 04:32:43,15.20681505,0.0002985,53.2103,294.8743,352.1243,7.9707,0.0026902,0.00060017,0.0,0 STARLINK-4668,1 53596U 22104J   24225.18939762  .00060017  00000-0  26902-2 0  9992,2 53596  53.2103 294.8743 0002985 352.1243   7.9707 15.20681505108311,6881.921,94.694,505.84,501.731,0.0
53596.0,STARLINK-4668,PAYLOAD,2024-08-12 10:51:17,15.2072906,0.0002999,53.2097,293.6719,352.546,7.5492,0.0026921,0.00060145,0.0,0 STARLINK-4668,1 53596U 22104J   24225.45228590  .00060145  00000-0  26921-2 0  9995,2 53596  53.2097 293.6719 0002999 352.5460   7.5492 15.20729060108353,6881.777,94.691,505.706,501.578,0.0
53596.0,STARLINK-4668,PAYLOAD,2024-08-12 14:00:33,15.20783356,0.0003054,53.21,293.0705,355.9121,4.1851,0.0058205,0.00131918,0.0,0 STARLINK-4668,1 53596U 22104J   24225.58372680  .00131918  00000-0  58205-2 0  9996,2 53596  53.2100 293.0705 0003054 355.9121   4.1851 15.20783356109060,6881.613,94.688,505.58,501.377,0.0
